[{"OBJECT_NAME":"RS12S","OBJECT_ID":"1998-067TY","EPOCH":"2022-08-18T21:33:31.925088","MEAN_MOTION":15.52111406,"ECCENTRICITY":0.000253,"INCLINATION":51.6424,"RA_OF_ASC_NODE":25.7141,"ARG_OF_PERICENTER":154.4712,"MEAN_ANOMALY":205.6403,"EPHEMERIS_TYPE":0,"CLASSIFICATION_TYPE":"U","NORAD_CAT_ID":53313,"ELEMENT_SET_NO":999,"REV_AT_EPOCH":444,"BSTAR":0.00085552,"MEAN_MOTION_DOT":0.00052527,"MEAN_MOTION_DDOT":0},{"OBJECT_NAME":"RS4S","OBJECT_ID":"1998-067TZ","EPOCH":"2022-08-18T23:10:20.593632","MEAN_MOTION":15.51950838,"ECCENTRICITY":0.0002338,"INCLINATION":51.6428,"RA_OF_ASC_NODE":25.4146,"ARG_OF_PERICENTER":135.4417,"MEAN_ANOMALY":224.6761,"EPHEMERIS_TYPE":0,"CLASSIFICATION_TYPE":"U","NORAD_CAT_ID":53321,"ELEMENT_SET_NO":999,"REV_AT_EPOCH":445,"BSTAR":0.00085609,"MEAN_MOTION_DOT":0.00052256,"MEAN_MOTION_DDOT":0},{"OBJECT_NAME":"RS29S (SXC3-2110 CYCLOPS)","OBJECT_ID":"2022-096D","EPOCH":"2022-08-19T02:01:32.881440","MEAN_MOTION":15.24528132,"ECCENTRICITY":0.0003141,"INCLINATION":97.435,"RA_OF_ASC_NODE":132.4791,"ARG_OF_PERICENTER":118.5433,"MEAN_ANOMALY":241.612,"EPHEMERIS_TYPE":0,"CLASSIFICATION_TYPE":"U","NORAD_CAT_ID":53373,"ELEMENT_SET_NO":999,"REV_AT_EPOCH":149,"BSTAR":0.00041819,"MEAN_MOTION_DOT":0.00010224,"MEAN_MOTION_DDOT":0},{"OBJECT_NAME":"RS32S (SXC3-212 MONITOR-1)","OBJECT_ID":"2022-096E","EPOCH":"2022-08-19T02:00:35.271648","MEAN_MOTION":15.24634612,"ECCENTRICITY":0.0003378,"INCLINATION":97.435,"RA_OF_ASC_NODE":132.48,"ARG_OF_PERICENTER":114.074,"MEAN_ANOMALY":246.0851,"EPHEMERIS_TYPE":0,"CLASSIFICATION_TYPE":"U","NORAD_CAT_ID":53374,"ELEMENT_SET_NO":999,"REV_AT_EPOCH":149,"BSTAR":0.00043207,"MEAN_MOTION_DOT":0.000106,"MEAN_MOTION_DDOT":0},{"OBJECT_NAME":"RS34S (SXC3-218 KUZBASS-300)","OBJECT_ID":"2022-096F","EPOCH":"2022-08-19T05:09:22.898304","MEAN_MOTION":15.24647977,"ECCENTRICITY":0.0003388,"INCLINATION":97.4349,"RA_OF_ASC_NODE":132.6105,"ARG_OF_PERICENTER":113.1904,"MEAN_ANOMALY":246.9691,"EPHEMERIS_TYPE":0,"CLASSIFICATION_TYPE":"U","NORAD_CAT_ID":53375,"ELEMENT_SET_NO":999,"REV_AT_EPOCH":151,"BSTAR":0.00031257,"MEAN_MOTION_DOT":7.649e-5,"MEAN_MOTION_DDOT":0},{"OBJECT_NAME":"RS23S (SXC3-21 UTMN)","OBJECT_ID":"2022-096G","EPOCH":"2022-08-19T05:09:04.312800","MEAN_MOTION":15.24686102,"ECCENTRICITY":0.0003386,"INCLINATION":97.435,"RA_OF_ASC_NODE":132.6107,"ARG_OF_PERICENTER":111.6568,"MEAN_ANOMALY":248.503,"EPHEMERIS_TYPE":0,"CLASSIFICATION_TYPE":"U","NORAD_CAT_ID":53376,"ELEMENT_SET_NO":999,"REV_AT_EPOCH":151,"BSTAR":0.00035061,"MEAN_MOTION_DOT":8.599e-5,"MEAN_MOTION_DDOT":0},{"OBJECT_NAME":"RS28S (SXC3-214 MIET-AIS)","OBJECT_ID":"2022-096H","EPOCH":"2022-08-19T00:25:16.097952","MEAN_MOTION":15.24711045,"ECCENTRICITY":0.0003423,"INCLINATION":97.4351,"RA_OF_ASC_NODE":132.4155,"ARG_OF_PERICENTER":112.0159,"MEAN_ANOMALY":248.1442,"EPHEMERIS_TYPE":0,"CLASSIFICATION_TYPE":"U","NORAD_CAT_ID":53377,"ELEMENT_SET_NO":999,"REV_AT_EPOCH":148,"BSTAR":0.00036842,"MEAN_MOTION_DOT":9.047e-5,"MEAN_MOTION_DDOT":0},{"OBJECT_NAME":"RS26S (KAI-1)","OBJECT_ID":"2022-096J","EPOCH":"2022-08-19T01:59:23.674560","MEAN_MOTION":15.24747551,"ECCENTRICITY":0.0003444,"INCLINATION":97.435,"RA_OF_ASC_NODE":132.481,"ARG_OF_PERICENTER":106.78,"MEAN_ANOMALY":253.3816,"EPHEMERIS_TYPE":0,"CLASSIFICATION_TYPE":"U","NORAD_CAT_ID":53378,"ELEMENT_SET_NO":999,"REV_AT_EPOCH":149,"BSTAR":0.00032963,"MEAN_MOTION_DOT":8.095e-5,"MEAN_MOTION_DDOT":0},{"OBJECT_NAME":"RS19S (SXC3-219 ISOI)","OBJECT_ID":"2022-096M","EPOCH":"2022-08-18T21:12:16.623072","MEAN_MOTION":15.25150036,"ECCENTRICITY":0.0005901,"INCLINATION":97.435,"RA_OF_ASC_NODE":132.2889,"ARG_OF_PERICENTER":69.3644,"MEAN_ANOMALY":290.8226,"EPHEMERIS_TYPE":0,"CLASSIFICATION_TYPE":"U","NORAD_CAT_ID":53381,"ELEMENT_SET_NO":999,"REV_AT_EPOCH":146,"BSTAR":0.00034951,"MEAN_MOTION_DOT":8.695e-5,"MEAN_MOTION_DDOT":0},{"OBJECT_NAME":"RS21S (CUBESX-HSE-2)","OBJECT_ID":"2022-096P","EPOCH":"2022-08-19T01:55:08.097312","MEAN_MOTION":15.2521509,"ECCENTRICITY":0.000605,"INCLINATION":97.435,"RA_OF_ASC_NODE":132.485,"ARG_OF_PERICENTER":67.9272,"MEAN_ANOMALY":292.2608,"EPHEMERIS_TYPE":0,"CLASSIFICATION_TYPE":"U","NORAD_CAT_ID":53383,"ELEMENT_SET_NO":999,"REV_AT_EPOCH":149,"BSTAR":0.00036489,"MEAN_MOTION_DOT":9.099e-5,"MEAN_MOTION_DDOT":0},{"OBJECT_NAME":"RS30S (SXC3-217 SIREN)","OBJECT_ID":"2022-096Q","EPOCH":"2022-08-19T05:03:51.717600","MEAN_MOTION":15.25236199,"ECCENTRICITY":0.0006123,"INCLINATION":97.4349,"RA_OF_ASC_NODE":132.6155,"ARG_OF_PERICENTER":66.8225,"MEAN_ANOMALY":293.3657,"EPHEMERIS_TYPE":0,"CLASSIFICATION_TYPE":"U","NORAD_CAT_ID":53384,"ELEMENT_SET_NO":999,"REV_AT_EPOCH":151,"BSTAR":0.00033675,"MEAN_MOTION_DOT":8.396e-5,"MEAN_MOTION_DDOT":0},{"OBJECT_NAME":"RS20S (GEOSCAN-EDELVEIS)","OBJECT_ID":"2022-096R","EPOCH":"2022-08-19T01:53:35.841984","MEAN_MOTION":15.2539101,"ECCENTRICITY":0.0006616,"INCLINATION":97.4349,"RA_OF_ASC_NODE":132.4864,"ARG_OF_PERICENTER":67.4518,"MEAN_ANOMALY":292.7419,"EPHEMERIS_TYPE":0,"CLASSIFICATION_TYPE":"U","NORAD_CAT_ID":53385,"ELEMENT_SET_NO":999,"REV_AT_EPOCH":152,"BSTAR":0.00041236,"MEAN_MOTION_DOT":0.00010349,"MEAN_MOTION_DDOT":0},{"OBJECT_NAME":"RS33S (SXC3-215 VIZARD)","OBJECT_ID":"2022-096S","EPOCH":"2022-08-19T01:51:41.798304","MEAN_MOTION":15.25613444,"ECCENTRICITY":0.0007367,"INCLINATION":97.4349,"RA_OF_ASC_NODE":132.4882,"ARG_OF_PERICENTER":66.8837,"MEAN_ANOMALY":293.3177,"EPHEMERIS_TYPE":0,"CLASSIFICATION_TYPE":"U","NORAD_CAT_ID":53386,"ELEMENT_SET_NO":999,"REV_AT_EPOCH":151,"BSTAR":0.00051453,"MEAN_MOTION_DOT":0.00013025,"MEAN_MOTION_DDOT":0}]