RS12S                   
1 53313U 98067TY  22230.89828617  .00052527  00000+0  85552-3 0  9991
2 53313  51.6424  25.7141 0002530 154.4712 205.6403 15.52111406  4441
RS4S                    
1 53321U 98067TZ  22230.96551613  .00052256  00000+0  85609-3 0  9999
2 53321  51.6428  25.4146 0002338 135.4417 224.6761 15.51950838  4451
RS29S (SXC3-2110 CYCLO*)
1 53373U 22096D   22231.08440835  .00010224  00000+0  41819-3 0  9996
2 53373  97.4350 132.4791 0003141 118.5433 241.6120 15.24528132  1495
RS32S (SXC3-212 MONITO*)
1 53374U 22096E   22231.08374157  .00010600  00000+0  43207-3 0  9991
2 53374  97.4350 132.4800 0003378 114.0740 246.0851 15.24634612  1492
RS34S (SXC3-218 KUZBAS*)
1 53375U 22096F   22231.21484836  .00007649  00000+0  31257-3 0  9994
2 53375  97.4349 132.6105 0003388 113.1904 246.9691 15.24647977  1516
RS23S (SXC3-21 UTMN)    
1 53376U 22096G   22231.21463325  .00008599  00000+0  35061-3 0  9997
2 53376  97.4350 132.6107 0003386 111.6568 248.5030 15.24686102  1516
RS28S (SXC3-214 MIET-A*)
1 53377U 22096H   22231.01754743  .00009047  00000+0  36842-3 0  9990
2 53377  97.4351 132.4155 0003423 112.0159 248.1442 15.24711045  1486
RS26S (KAI-1)           
1 53378U 22096J   22231.08291290  .00008095  00000+0  32963-3 0  9993
2 53378  97.4350 132.4810 0003444 106.7800 253.3816 15.24747551  1495
RS19S (SXC3-219 ISOI)   
1 53381U 22096M   22230.88352573  .00008695  00000+0  34951-3 0  9991
2 53381  97.4350 132.2889 0005901  69.3644 290.8226 15.25150036  1468
RS21S (CUBESX-HSE-2)    
1 53383U 22096P   22231.07995483  .00009099  00000+0  36489-3 0  9995
2 53383  97.4350 132.4850 0006050  67.9272 292.2608 15.25215090  1492
RS30S (SXC3-217 SIREN)  
1 53384U 22096Q   22231.21101525  .00008396  00000+0  33675-3 0  9991
2 53384  97.4349 132.6155 0006123  66.8225 293.3657 15.25236199  1510
RS20S (GEOSCAN-EDELVEIS)
1 53385U 22096R   22231.07888706  .00010349  00000+0  41236-3 0  9992
2 53385  97.4349 132.4864 0006616  67.4518 292.7419 15.25391010  1529
RS33S (SXC3-215 VIZARD) 
1 53386U 22096S   22231.07756711  .00013025  00000+0  51453-3 0  9999
2 53386  97.4349 132.4882 0007367  66.8837 293.3177 15.25613444  1516
